NORAD_CAT_ID,OBJECT_NAME,OBJECT_TYPE,EPOCH,MEAN_MOTION,ECCENTRICITY,INCLINATION,RA_OF_ASC_NODE,ARG_OF_PERICENTER,MEAN_ANOMALY,BSTAR,MEAN_MOTION_DOT,MEAN_MOTION_DDOT,TLE_LINE0,TLE_LINE1,TLE_LINE2,SEMIMAJOR_AXIS,PERIOD,APOGEE,PERIGEE,DECAYED
53745.0,STARLINK-4656,PAYLOAD,2024-03-27 13:20:55,15.08840952,0.0001134,53.216,221.1424,88.6195,271.4927,0.0003916,5.95e-05,0.0,0 STARLINK-4656,1 53745U 22107AX  24087.55620156  .00005950  00000-0  39160-3 0  9998,2 53745  53.2160 221.1424 0001134  88.6195 271.4927 15.08840952 86306,6917.877,95.437,540.527,538.958,0.0
53745.0,STARLINK-4656,PAYLOAD,2024-03-27 14:56:18,15.08843969,0.0001326,53.2167,220.8446,84.2199,275.8944,0.00046826,7.173e-05,0.0,0 STARLINK-4656,1 53745U 22107AX  24087.62244106  .00007173  00000-0  46826-3 0  9999,2 53745  53.2167 220.8446 0001326  84.2199 275.8944 15.08843969 87097,6917.868,95.437,540.651,538.816,0.0
53745.0,STARLINK-4656,PAYLOAD,2024-03-27 16:31:41,15.08850589,0.0001618,53.2162,220.547,86.1993,273.9184,0.00094809,0.00014837,0.0,0 STARLINK-4656,1 53745U 22107AX  24087.68867926  .00014837  00000-0  94809-3 0  9995,2 53745  53.2162 220.5470 0001618  86.1993 273.9184 15.08850589 86329,6917.848,95.437,540.832,538.594,0.0
53745.0,STARLINK-4656,PAYLOAD,2024-03-28 02:04:00,15.08851326,0.0001509,53.2169,218.7633,85.3529,274.7635,0.00039779,6.05e-05,0.0,0 STARLINK-4656,1 53745U 22107AX  24088.08611872  .00006050  00000-0  39779-3 0  9990,2 53745  53.2169 218.7633 0001509  85.3529 274.7635 15.08851326 86387,6917.846,95.437,540.755,538.667,0.0
53745.0,STARLINK-4656,PAYLOAD,2024-03-28 08:25:33,15.08848509,0.0001722,53.215,217.5734,84.5778,275.541,0.00023357,3.432e-05,0.0,0 STARLINK-4656,1 53745U 22107AX  24088.35107884  .00003432  00000-0  23357-3 0  9999,2 53745  53.2150 217.5734 0001722  84.5778 275.5410 15.08848509 87201,6917.854,95.437,540.911,538.528,0.0
53745.0,STARLINK-4656,PAYLOAD,2024-03-28 17:57:51,15.08850455,0.0001698,53.215,215.789,85.5692,274.5494,0.0002482,3.665e-05,0.0,0 STARLINK-4656,1 53745U 22107AX  24088.74851606  .00003665  00000-0  24820-3 0  9994,2 53745  53.2150 215.7890 0001698  85.5692 274.5494 15.08850455 86485,6917.848,95.437,540.888,538.539,0.0
53745.0,STARLINK-4656,PAYLOAD,2024-03-29 13:02:29,15.08849019,0.000189,53.2144,212.2203,84.2772,275.8436,0.00015047,2.108e-05,0.0,0 STARLINK-4656,1 53745U 22107AX  24089.54339545  .00002108  00000-0  15047-3 0  9998,2 53745  53.2144 212.2203 0001890  84.2772 275.8436 15.08849019 86605,6917.853,95.437,541.025,538.41,0.0
53745.0,STARLINK-4656,PAYLOAD,2024-03-29 14:37:52,15.08851659,0.0001857,53.2151,211.9204,102.0043,258.1157,0.00020712,3.011e-05,0.0,0 STARLINK-4656,1 53745U 22107AX  24089.60963283  .00003011  00000-0  20712-3 0  9996,2 53745  53.2151 211.9204 0001857 102.0043 258.1157 15.08851659 87397,6917.845,95.437,540.994,538.425,0.0
53745.0,STARLINK-4656,PAYLOAD,2024-03-29 17:48:38,15.08853394,0.0002005,53.2149,211.3253,105.0694,255.052,0.00017739,2.537e-05,0.0,0 STARLINK-4656,1 53745U 22107AX  24089.74211117  .00002537  00000-0  17739-3 0  9990,2 53745  53.2149 211.3253 0002005 105.0694 255.0520 15.08853394 87414,6917.839,95.437,541.091,538.317,0.0
53745.0,STARLINK-4656,PAYLOAD,2024-03-30 12:53:16,15.08842358,0.0002025,53.2159,207.7578,105.792,254.3295,4.5644e-05,4.38e-06,0.0,0 STARLINK-4656,1 53745U 22107AX  24090.53699550  .00000438  00000-0  45644-4 0  9995,2 53745  53.2159 207.7578 0002025 105.7920 254.3295 15.08842358 86750,6917.873,95.437,541.139,538.337,0.0
53745.0,STARLINK-4656,PAYLOAD,2024-03-30 14:28:39,15.08843198,0.0001565,53.2148,207.4613,81.7339,278.3831,8.3452e-05,1.04e-05,0.0,0 STARLINK-4656,1 53745U 22107AX  24090.60323573  .00001040  00000-0  83452-4 0  9991,2 53745  53.2148 207.4613 0001565  81.7339 278.3831 15.08843198 87543,6917.871,95.437,540.818,538.653,0.0
53745.0,STARLINK-4656,PAYLOAD,2024-03-31 14:19:26,15.08848256,0.0001371,53.2159,203.0013,80.9437,279.171,0.00010495,1.383e-05,0.0,0 STARLINK-4656,1 53745U 22107AX  24091.59683322  .00001383  00000-0  10495-3 0  9997,2 53745  53.2159 203.0013 0001371  80.9437 279.1710 15.08848256 87697,6917.855,95.437,540.669,538.772,0.0
53745.0,STARLINK-4656,PAYLOAD,2024-03-31 23:51:45,15.08839513,0.0001233,53.2158,201.2175,80.0911,280.022,-1.4371e-05,-5.17e-06,0.0,0 STARLINK-4656,1 53745U 22107AX  24091.99427630 -.00000517  00000-0 -14371-4 0  9997,2 53745  53.2158 201.2175 0001233  80.0911 280.0220 15.08839513 86973,6917.882,95.438,540.6,538.894,0.0
53745.0,STARLINK-4656,PAYLOAD,2024-04-01 12:34:51,15.08829056,0.0001689,53.2183,198.8407,91.8814,268.2372,-4.9088e-05,-1.069e-05,0.0,0 STARLINK-4656,1 53745U 22107AX  24092.52420720 -.00001069  00000-0 -49088-4 0  9996,2 53745  53.2183 198.8407 0001689  91.8814 268.2372 15.08829056 87054,6917.914,95.438,540.947,538.61,0.0
53745.0,STARLINK-4656,PAYLOAD,2024-04-01 14:10:14,15.08833145,0.0001514,53.218,198.5447,93.2363,266.8802,1.5423e-05,-4.3e-07,0.0,0 STARLINK-4656,1 53745U 22107AX  24092.59044488 -.00000043  00000-0  15423-4 0  9992,2 53745  53.2180 198.5447 0001514  93.2363 266.8802 15.08833145 87847,6917.901,95.438,540.814,538.719,0.0
53745.0,STARLINK-4656,PAYLOAD,2024-04-01 17:21:00,15.08836792,0.0001319,53.2164,197.9461,81.8428,278.2714,6.5734e-05,7.58e-06,0.0,0 STARLINK-4656,1 53745U 22107AX  24092.72292336  .00000758  00000-0  65734-4 0  9996,2 53745  53.2164 197.9461 0001319  81.8428 278.2714 15.08836792 87082,6917.89,95.438,540.668,538.843,0.0
53745.0,STARLINK-4656,PAYLOAD,2024-04-02 14:01:00,15.08853967,0.0001214,53.2161,194.0816,95.5439,264.5692,0.00029023,4.336e-05,0.0,0 STARLINK-4656,1 53745U 22107AX  24093.58403441  .00004336  00000-0  29023-3 0  9998,2 53745  53.2161 194.0816 0001214  95.5439 264.5692 15.08853967 87210,6917.838,95.437,540.543,538.863,0.0
53745.0,STARLINK-4656,PAYLOAD,2024-04-02 17:11:46,15.08857225,0.00014,53.2169,193.4883,98.9365,261.1786,0.00034896,5.273e-05,0.0,0 STARLINK-4656,1 53745U 22107AX  24093.71651315  .00005273  00000-0  34896-3 0  9993,2 53745  53.2169 193.4883 0001400  98.9365 261.1786 15.08857225 88014,6917.828,95.436,540.661,538.724,0.0
53745.0,STARLINK-4656,PAYLOAD,2024-04-03 05:54:52,15.08841121,0.000135,53.2169,191.1099,92.1082,268.0065,0.00014787,2.066e-05,0.0,0 STARLINK-4656,1 53745U 22107AX  24094.24644103  .00002066  00000-0  14787-3 0  9993,2 53745  53.2169 191.1099 0001350  92.1082 268.0065 15.08841121 87310,6917.877,95.437,540.676,538.808,0.0
53745.0,STARLINK-4656,PAYLOAD,2024-04-03 12:16:25,15.08841994,0.0001672,53.2175,189.9198,86.6289,273.4894,7.6586e-05,9.31e-06,0.0,0 STARLINK-4656,1 53745U 22107AX  24094.51140082  .00000931  00000-0  76586-4 0  9995,2 53745  53.2175 189.9198 0001672  86.6289 273.4894 15.08841994 88135,6917.874,95.437,540.896,538.583,0.0
53745.0,STARLINK-4656,PAYLOAD,2024-04-03 15:27:11,15.08848396,0.0001482,53.2165,189.3235,83.4603,276.6558,0.00016539,2.346e-05,0.0,0 STARLINK-4656,1 53745U 22107AX  24094.64387761  .00002346  00000-0  16539-3 0  9999,2 53745  53.2165 189.3235 0001482  83.4603 276.6558 15.08848396 88151,6917.855,95.437,540.745,538.694,0.0
53745.0,STARLINK-4656,PAYLOAD,2024-04-04 12:07:11,15.08839976,0.0001644,53.2167,185.4583,99.0633,261.0546,-6.9796e-05,-1.399e-05,0.0,0 STARLINK-4656,1 53745U 22107AX  24095.50499945 -.00001399  00000-0 -69796-4 0  9996,2 53745  53.2167 185.4583 0001644  99.0633 261.0546 15.08839976 87509,6917.88,95.438,540.883,538.608,0.0
53745.0,STARLINK-4656,PAYLOAD,2024-04-04 13:42:35,15.08843595,0.0001395,53.2162,185.1606,92.571,267.5441,-6.1208e-05,-1.262e-05,0.0,0 STARLINK-4656,1 53745U 22107AX  24095.57123899 -.00001262  00000-0 -61208-4 0  9994,2 53745  53.2162 185.1606 0001395  92.5710 267.5441 15.08843595 88298,6917.869,95.437,540.699,538.769,0.0
53745.0,STARLINK-4656,PAYLOAD,2024-04-05 11:57:58,15.0884682,0.0001388,53.2149,180.9966,85.7319,274.3832,0.00021789,3.182e-05,0.0,0 STARLINK-4656,1 53745U 22107AX  24096.49859794  .00003182  00000-0  21789-3 0  9996,2 53745  53.2149 180.9966 0001388  85.7319 274.3832 15.08846820 88436,6917.86,95.437,540.685,538.764,0.0
53745.0,STARLINK-4656,PAYLOAD,2024-04-06 05:27:13,15.08842813,0.0001365,53.2142,177.7258,84.8191,275.2957,0.00012812,1.752e-05,0.0,0 STARLINK-4656,1 53745U 22107AX  24097.22723957  .00001752  00000-0  12812-3 0  9997,2 53745  53.2142 177.7258 0001365  84.8191 275.2957 15.08842813 87761,6917.872,95.437,540.681,538.793,0.0
53745.0,STARLINK-4656,PAYLOAD,2024-04-06 11:48:46,15.08836817,0.0001367,53.2144,176.536,85.6889,274.4259,3.0965e-05,2.05e-06,0.0,0 STARLINK-4656,1 53745U 22107AX  24097.49220338  .00000205  00000-0  30965-4 0  9993,2 53745  53.2144 176.5360 0001367  85.6889 274.4259 15.08836817 88583,6917.89,95.438,540.701,538.809,0.0
53745.0,STARLINK-4656,PAYLOAD,2024-04-07 11:39:33,15.08839653,0.0001392,53.2152,172.0748,89.5124,270.6027,5.7029e-06,-1.97e-06,0.0,0 STARLINK-4656,1 53745U 22107AX  24098.48580510 -.00000197  00000-0  57029-5 0  9996,2 53745  53.2152 172.0748 0001392  89.5124 270.6027 15.08839653 88735,6917.881,95.438,540.709,538.783,0.0
53745.0,STARLINK-4656,PAYLOAD,2024-04-07 21:11:52,15.08840749,0.0001482,53.2161,170.2908,90.6313,269.4849,-2.8018e-07,-2.92e-06,0.0,0 STARLINK-4656,1 53745U 22107AX  24098.88324474 -.00000292  00000-0 -28018-6 0  9999,2 53745  53.2161 170.2908 0001482  90.6313 269.4849 15.08840749 88013,6917.878,95.438,540.768,538.718,0.0
53745.0,STARLINK-4656,PAYLOAD,2024-04-08 11:30:20,15.08842461,0.0001338,53.2166,167.6169,88.5999,271.5146,0.00016146,2.283e-05,0.0,0 STARLINK-4656,1 53745U 22107AX  24099.47940124  .00002283  00000-0  16146-3 0  9997,2 53745  53.2166 167.6169 0001338  88.5999 271.5146 15.08842461 88885,6917.873,95.437,540.663,538.812,0.0
53745.0,STARLINK-4656,PAYLOAD,2024-04-08 21:02:39,15.08841634,0.0001209,53.2159,165.8331,85.4057,274.7073,0.00014759,2.062e-05,0.0,0 STARLINK-4656,1 53745U 22107AX  24099.87684236  .00002062  00000-0  14759-3 0  9993,2 53745  53.2159 165.8331 0001209  85.4057 274.7073 15.08841634 88948,6917.875,95.437,540.577,538.904,0.0
